NORAD_CAT_ID,OBJECT_NAME,OBJECT_TYPE,EPOCH,MEAN_MOTION,ECCENTRICITY,INCLINATION,RA_OF_ASC_NODE,ARG_OF_PERICENTER,MEAN_ANOMALY,BSTAR,MEAN_MOTION_DOT,MEAN_MOTION_DDOT,TLE_LINE0,TLE_LINE1,TLE_LINE2,SEMIMAJOR_AXIS,PERIOD,APOGEE,PERIGEE,DECAYED
55924.0,STARLINK-5849,PAYLOAD,2024-08-07 15:57:34,14.9835036,0.0003227,70.0008,304.5544,273.1606,86.9183,4.6183e-05,4.58e-06,0.0,0 STARLINK-5849,1 55924U 23037L   24220.66497928  .00000458  00000-0  46183-4 0  9994,2 55924  70.0008 304.5544 0003227 273.1606  86.9183 14.98350360 77240,6950.13,96.106,574.238,569.752,0.0
55924.0,STARLINK-5849,PAYLOAD,2024-08-08 12:47:20,14.98320472,0.0002577,70.0024,302.3674,260.6431,99.4436,0.00015092,1.708e-05,0.0,0 STARLINK-5849,1 55924U 23037L   24221.53287488  .00001708  00000-0  15092-3 0  9992,2 55924  70.0024 302.3674 0002577 260.6431  99.4436 14.98320472 77377,6950.222,96.108,573.878,570.296,0.0
55924.0,STARLINK-5849,PAYLOAD,2024-08-08 15:59:35,14.98329235,0.000305,70.0012,302.0307,271.2701,88.8108,0.00018302,2.091e-05,0.0,0 STARLINK-5849,1 55924U 23037L   24221.66638863  .00002091  00000-0  18302-3 0  9996,2 55924  70.0012 302.0307 0003050 271.2701  88.8108 14.98329235 77733,6950.195,96.107,574.18,569.94,0.0
55924.0,STARLINK-5849,PAYLOAD,2024-08-08 22:24:08,14.98322811,0.0002849,70.0017,301.359,265.3201,94.7633,0.00010388,1.146e-05,0.0,0 STARLINK-5849,1 55924U 23037L   24221.93343616  .00001146  00000-0  10388-3 0  9991,2 55924  70.0017 301.3590 0002849 265.3201  94.7633 14.98322811 77437,6950.215,96.107,574.06,570.1,0.0
55924.0,STARLINK-5849,PAYLOAD,2024-08-09 12:49:20,14.98335133,0.0002863,70.0017,299.8424,264.5429,95.5404,-4.2121e-05,-5.96e-06,0.0,0 STARLINK-5849,1 55924U 23037L   24222.53426970 -.00000596  00000-0 -42121-4 0  9994,2 55924  70.0017 299.8424 0002863 264.5429  95.5404 14.98335133 77529,6950.177,96.107,574.032,570.052,0.0
55924.0,STARLINK-5849,PAYLOAD,2024-08-09 14:25:28,14.98336264,0.0002894,70.0021,299.6744,267.7619,92.3209,-1.2235e-05,-2.39e-06,0.0,0 STARLINK-5849,1 55924U 23037L   24222.60102822 -.00000239  00000-0 -12235-4 0  9996,2 55924  70.0021 299.6744 0002894 267.7619  92.3209 14.98336264 77532,6950.174,96.107,574.05,570.027,0.0
55924.0,STARLINK-5849,PAYLOAD,2024-08-10 04:50:42,14.98322012,0.0002882,70.0019,298.1595,261.8111,98.2721,-2.2152e-05,-3.57e-06,0.0,0 STARLINK-5849,1 55924U 23037L   24223.20187589 -.00000357  00000-0 -22152-4 0  9996,2 55924  70.0019 298.1595 0002882 261.8111  98.2721 14.98322012 77963,6950.218,96.108,574.086,570.08,0.0
55924.0,STARLINK-5849,PAYLOAD,2024-08-10 14:27:30,14.98327859,0.0003104,70.0006,297.1482,270.1536,89.9268,9.2729e-07,-8.2e-07,0.0,0 STARLINK-5849,1 55924U 23037L   24223.60243316 -.00000082  00000-0  92729-6 0  9994,2 55924  70.0006 297.1482 0003104 270.1536  89.9268 14.98327859 77681,6950.2,96.107,574.222,569.907,0.0
55924.0,STARLINK-5849,PAYLOAD,2024-08-11 11:17:15,14.98327765,0.0003201,69.9993,294.9575,263.7171,96.3624,-5.2722e-07,-9.9e-07,0.0,0 STARLINK-5849,1 55924U 23037L   24224.47031539 -.00000099  00000-0 -52722-6 0  9990,2 55924  69.9993 294.9575 0003201 263.7171  96.3624 14.98327765 78159,6950.2,96.107,574.29,569.84,0.0
55924.0,STARLINK-5849,PAYLOAD,2024-08-11 14:29:30,14.98335301,0.0002767,70.0003,294.6214,261.725,98.3595,9.9403e-05,1.093e-05,0.0,0 STARLINK-5849,1 55924U 23037L   24224.60382808  .00001093  00000-0  99403-4 0  9991,2 55924  70.0003 294.6214 0002767 261.7250  98.3595 14.98335301 78179,6950.176,96.107,573.965,570.118,0.0
55924.0,STARLINK-5849,PAYLOAD,2024-08-11 22:30:10,14.98340181,0.0003179,70.0001,293.779,272.0175,88.062,4.4038e-06,-4e-07,0.0,0 STARLINK-5849,1 55924U 23037L   24224.93762561 -.00000040  00000-0  44038-5 0  9992,2 55924  70.0001 293.7790 0003179 272.0175  88.0620 14.98340181 77889,6950.161,96.106,574.236,569.817,0.0
55924.0,STARLINK-5849,PAYLOAD,2024-08-12 11:19:13,14.98352328,0.0002827,70.001,292.4359,266.9621,93.1215,0.00034847,4.07e-05,0.0,0 STARLINK-5849,1 55924U 23037L   24225.47168763  .00004070  00000-0  34847-3 0  9997,2 55924  70.0010 292.4359 0002827 266.9621  93.1215 14.98352328 78304,6950.124,96.106,573.954,570.024,0.0
55924.0,STARLINK-5849,PAYLOAD,2024-08-13 04:56:44,14.98329456,0.0003059,70.0001,290.5824,274.3037,85.7772,2.8059e-05,2.42e-06,0.0,0 STARLINK-5849,1 55924U 23037L   24226.20606871  .00000242  00000-0  28059-4 0  9992,2 55924  70.0001 290.5824 0003059 274.3037  85.7772 14.98329456 78415,6950.195,96.107,574.186,569.934,0.0
55924.0,STARLINK-5849,PAYLOAD,2024-08-13 11:21:17,14.98321635,0.0002907,69.9995,289.9099,266.9114,93.1713,-0.00018452,-2.293e-05,0.0,0 STARLINK-5849,1 55924U 23037L   24226.47311887 -.00002293  00000-0 -18452-3 0  9996,2 55924  69.9995 289.9099 0002907 266.9114  93.1713 14.98321635 78457,6950.219,96.108,574.104,570.063,0.0
55924.0,STARLINK-5849,PAYLOAD,2024-08-13 14:33:33,14.98321666,0.0002942,69.9993,289.5729,267.7315,92.3507,-0.00017726,-2.207e-05,0.0,0 STARLINK-5849,1 55924U 23037L   24226.60663938 -.00002207  00000-0 -17726-3 0  9996,2 55924  69.9993 289.5729 0002942 267.7315  92.3507 14.98321666 78133,6950.219,96.108,574.128,570.039,0.0
55924.0,STARLINK-5849,PAYLOAD,2024-08-13 20:58:05,14.98322469,0.000304,69.9989,288.8985,270.8958,89.1852,-0.00019409,-2.408e-05,0.0,0 STARLINK-5849,1 55924U 23037L   24226.87368028 -.00002408  00000-0 -19409-3 0  9990,2 55924  69.9989 288.8985 0003040 270.8958  89.1852 14.98322469 78175,6950.216,96.107,574.194,569.968,0.0
55924.0,STARLINK-5849,PAYLOAD,2024-08-14 12:59:27,14.9832246,0.0002695,69.9995,287.2166,266.852,93.2331,-0.00022054,-2.723e-05,0.0,0 STARLINK-5849,1 55924U 23037L   24227.54128547 -.00002723  00000-0 -22054-3 0  9995,2 55924  69.9995 287.2166 0002695 266.8520  93.2331 14.98322460 78619,6950.216,96.107,573.954,570.208,0.0
55924.0,STARLINK-5849,PAYLOAD,2024-08-14 14:35:35,14.98323033,0.0002676,69.9995,287.0483,266.3181,93.7673,-0.00020811,-2.575e-05,0.0,0 STARLINK-5849,1 55924U 23037L   24227.60804515 -.00002575  00000-0 -20811-3 0  9992,2 55924  69.9995 287.0483 0002676 266.3181  93.7673 14.98323033 78280,6950.214,96.107,573.939,570.22,0.0
55924.0,STARLINK-5849,PAYLOAD,2024-08-14 21:00:06,14.98331015,0.0002942,69.9995,286.3749,271.9478,88.1344,-0.00021574,-2.666e-05,0.0,0 STARLINK-5849,1 55924U 23037L   24227.87508062 -.00002666  00000-0 -21574-3 0  9997,2 55924  69.9995 286.3749 0002942 271.9478  88.1344 14.98331015 78321,6950.19,96.107,574.099,570.01,0.0
55924.0,STARLINK-5849,PAYLOAD,2024-08-15 09:49:11,14.9831878,0.0002795,69.9991,285.0282,268.5377,91.5462,0.00015672,1.777e-05,0.0,0 STARLINK-5849,1 55924U 23037L   24228.40916320  .00001777  00000-0  15672-3 0  9999,2 55924  69.9991 285.0282 0002795 268.5377  91.5462 14.98318780 78403,6950.228,96.108,574.035,570.15,0.0
55924.0,STARLINK-5849,PAYLOAD,2024-08-15 21:02:08,14.98322859,0.0002763,69.9992,283.8498,269.9481,90.1362,0.0001776,2.026e-05,0.0,0 STARLINK-5849,1 55924U 23037L   24228.87648302  .00002026  00000-0  17760-3 0  9990,2 55924  69.9992 283.8498 0002763 269.9481  90.1362 14.98322859 78816,6950.215,96.107,574.0,570.16,0.0
55924.0,STARLINK-5849,PAYLOAD,2024-08-16 09:51:12,14.98331506,0.0002972,69.9989,282.5031,270.1226,89.9592,0.00022968,2.649e-05,0.0,0 STARLINK-5849,1 55924U 23037L   24229.41055727  .00002649  00000-0  22968-3 0  9991,2 55924  69.9989 282.5031 0002972 270.1226  89.9592 14.98331506 78892,6950.188,96.107,574.119,569.988,0.0
55924.0,STARLINK-5849,PAYLOAD,2024-08-17 08:17:05,14.98334624,0.0002964,69.999,280.1468,269.8031,90.2788,9.378e-05,1.026e-05,0.0,0 STARLINK-5849,1 55924U 23037L   24230.34519685  .00001026  00000-0  93780-4 0  9992,2 55924  69.9990 280.1468 0002964 269.8031  90.2788 14.98334624 78696,6950.179,96.107,574.104,569.984,0.0
55924.0,STARLINK-5849,PAYLOAD,2024-08-18 05:06:49,14.98338833,0.0002978,69.9989,277.9586,269.7733,90.3085,-1.9258e-05,-3.23e-06,0.0,0 STARLINK-5849,1 55924U 23037L   24231.21307249 -.00000323  00000-0 -19258-4 0  9999,2 55924  69.9989 277.9586 0002978 269.7733  90.3085 14.98338833 79162,6950.166,96.106,574.1,569.961,0.0
55924.0,STARLINK-5849,PAYLOAD,2024-08-18 13:07:29,14.98340601,0.0002992,69.9987,277.1164,270.58,89.5017,-2.3755e-06,-1.21e-06,0.0,0 STARLINK-5849,1 55924U 23037L   24231.54686863 -.00000121  00000-0 -23755-5 0  9991,2 55924  69.9987 277.1164 0002992 270.5800  89.5017 14.98340601 78873,6950.16,96.106,574.105,569.946,0.0
55924.0,STARLINK-5849,PAYLOAD,2024-08-19 13:09:30,14.98332428,0.0002897,69.9987,274.5913,269.831,90.2517,-1.0497e-05,-2.18e-06,0.0,0 STARLINK-5849,1 55924U 23037L   24232.54827031 -.00000218  00000-0 -10497-4 0  9991,2 55924  69.9987 274.5913 0002897 269.8310  90.2517 14.98332428 79364,6950.185,96.107,574.064,570.037,0.0
55924.0,STARLINK-5849,PAYLOAD,2024-08-20 11:35:23,14.98333604,0.0002863,69.9986,272.2347,270.6072,89.4759,8.9567e-06,1.4e-07,0.0,0 STARLINK-5849,1 55924U 23037L   24233.48290715  .00000014  00000-0  89567-5 0  9995,2 55924  69.9986 272.2347 0002863 270.6072  89.4759 14.98333604 79160,6950.182,96.107,574.037,570.057,0.0
55924.0,STARLINK-5849,PAYLOAD,2024-08-21 05:12:52,14.98327665,0.0002856,69.9985,270.3832,269.4625,90.6206,-5.691e-06,-1.61e-06,0.0,0 STARLINK-5849,1 55924U 23037L   24234.21727070 -.00000161  00000-0 -56910-5 0  9997,2 55924  69.9985 270.3832 0002856 269.4625  90.6206 14.98327665 79610,6950.2,96.107,574.05,570.08,0.0
55924.0,STARLINK-5849,PAYLOAD,2024-08-21 11:37:24,14.98327682,0.0002856,69.9985,269.7099,269.4669,90.6163,-5.1676e-06,-1.55e-06,0.0,0 STARLINK-5849,1 55924U 23037L   24234.48431100 -.00000155  00000-0 -51676-5 0  9999,2 55924  69.9985 269.7099 0002856 269.4669  90.6163 14.98327682 79313,6950.2,96.107,574.05,570.08,0.0
55924.0,STARLINK-5849,PAYLOAD,2024-08-21 19:38:04,14.98328746,0.0002871,69.9984,268.868,271.0116,89.0714,7.3173e-06,-6e-08,0.0,0 STARLINK-5849,1 55924U 23037L   24234.81811033 -.00000006  00000-0  73173-5 0  9993,2 55924  69.9984 268.8680 0002871 271.0116  89.0714 14.98328746 79362,6950.197,96.107,574.057,570.066,0.0
